#aV2019  1 16  0  0  0.00000000     288 DD+AD WGS84 FIT  NGA
## 2036 259200.00000000   300.00000000 58499 0.0000000000000
+   31     1  2  3  5  6  7  8  9 10 11 12 13 14 15 16 17 18
+         19 20 21 22 23 24 25 26 27 28 29 30 31 32  0  0  0
+          0  0  0  0  0  0  0  0  0  0  0  0  0  0  0  0  0
+          0  0  0  0  0  0  0  0  0  0  0  0  0  0  0  0  0
+          0  0  0  0  0  0  0  0  0  0  0  0  0  0  0  0  0
++         2  2  2  2  2  2  2  2  2  2  2  2  2  2  2  2  2
++         2  2  2  2  2  2  2  2  2  2  2  2  2  2  0  0  0
++         0  0  0  0  0  0  0  0  0  0  0  0  0  0  0  0  0
++         0  0  0  0  0  0  0  0  0  0  0  0  0  0  0  0  0
++         0  0  0  0  0  0  0  0  0  0  0  0  0  0  0  0  0
%c cc cc ccc ccc cccc cccc cccc cccc ccccc ccccc ccccc ccccc
%c cc cc ccc ccc cccc cccc cccc cccc ccccc ccccc ccccc ccccc
%f  0.0000000  0.000000000  0.00000000000  0.000000000000000
%f  0.0000000  0.000000000  0.00000000000  0.000000000000000
%i    0    0    0    0      0      0      0      0         0
%i    0    0    0    0      0      0      0      0         0
/*      NGA, ST. LOUIS,MO.                                  
/*   EPHEMERIS COMPUTED FROM 2 DAYS OF DATA                 
/*   EPOCHA v3 SMOOTHER                                     
/*   G1762 IERS2010 SATAF SATAPC                            
*  2019  1 16  0 40  0.00000000
P  1  12259.109934 -21836.430078  -8535.364371   -146.057513                    
V  1   9014.720141  -6210.580827  29718.235210     -0.064244                    
P  2 -20230.892642  11907.740851 -11634.452448   -114.166713                    
V  2   7674.777059 -14094.722509 -26624.122851     -0.100995                    
P  3   5852.344791 -14193.437422 -21705.387056    177.444561                    
V  3  26765.408895   6204.165045   3234.262391      0.024693                    
P  5 -23695.342820   3782.942204  11482.566102      0.821242                    
V  5 -13954.287007  -5335.958845 -26558.747485      0.001276                    
P  6 -17471.901425   -921.513359 -19951.648001    296.077032                    
V  6  16312.274461 -19463.735817 -13335.396081     -0.076084                    
P  7   -903.164505 -18593.163892  19008.668153     50.956991                    
V  7  17510.618192 -16210.675651 -15675.239305     -0.070720                    
P  8   8814.075747 -15763.687653  19460.364691   -129.209646                    
V  8   8964.300834  22983.835731  14774.481997     -0.013235                    
P  9  -7505.592591 -25443.256561  -1289.405443    471.229882                    
V  9   3439.134001    522.375850 -31510.288790     -0.046433                    
P 10  22422.893748  11282.369587   9018.815258    134.889081                    
V 10 -11569.655472    -87.088242  28840.060639     -0.065400                    
P 11   8972.878539 -25053.776287   1400.073625   -674.755231                    
V 11   3373.228175   3571.464200  30334.030366      0.053183                    
P 12  -9255.773901  12377.610704 -21773.604013    276.039454                    
V 12 -25933.101921  -8003.731396   6710.329571     -0.030905                    
P 13 -13475.256557   7912.794852  21353.553974    -78.182342                    
V 13  -5607.672019 -26802.253837   6389.898176      0.012825                    
P 14  15805.967293   9340.556729 -18955.021427    -93.091809                    
V 14   4304.243648  24311.966607  15150.935675      0.006178                    
P 15  -6295.050594  18653.079960  17392.898965   -332.073071                    
V 15 -11142.994156 -20099.998455  17663.352720      0.015647                    
P 16  23736.163517  -1080.494003  12141.924871    -12.984476                    
V 16  14362.178962   5970.571299 -26749.603424     -0.023717                    
P 17 -13745.119370 -18423.915990 -12985.677433     -4.175303                    
V 17  -2634.728898 -16972.070824  25952.318379      0.053641                    
P 18  17567.395693 -19733.499115   1281.953477     16.186193                    
V 18   1070.467854   3758.854136  31616.701614      0.037919                    
P 19 -15478.538419  -9161.249450 -19796.763024   -362.930069                    
V 19  -4128.291759 -24156.887172  14725.766604      0.040026                    
P 20  15236.879635  13977.933266  16627.481610    521.162913                    
V 20 -21501.051216    181.041994  19281.072677      0.004137                    
P 21   4631.734128  17450.323033  20317.034328   -268.377017                    
V 21 -16035.252923  17983.639747 -12195.370947      0.069341                    
P 22  14016.937059 -12148.150704 -18760.200057   -623.635490                    
V 22  23906.633188   5455.129580  14200.468529     -0.086858                    
P 23     24.090479 -24002.200354 -10600.348416   -200.401773                    
V 23   7663.451525  12289.720391 -27436.502486      0.011765                    
P 24 -14497.553164  21754.819448  -3709.355166    -60.861797                    
V 24  -5780.766917   1176.076391  31012.709165     -0.005277                    
P 25   3758.552278  15731.710356 -21308.551152   -706.481650                    
V 25 -25995.661784  -5272.328693  -8306.212829     -0.054520                    
P 26  26324.589408   3210.907828   2665.761624     97.502805                    
V 26   2768.310412   3482.854237 -31239.349689      0.105924                    
P 27  13905.864453  -5071.492752  21962.473716    -49.733225                    
V 27   8750.274898  26648.559491    887.161185     -0.066167                    
P 28 -20028.984506 -13952.083486  10979.067039    762.050674                    
V 28  12932.682168   2253.951449  28131.328364      0.010883                    
P 29   3320.914248  25949.041665  -4611.922130    292.416730                    
V 29  -3350.830746  -5159.062723 -31571.416419     -0.083787                    
P 30 -11136.443373 -10962.230976  21491.524681    -36.547251                    
V 30  19371.504290 -19273.185856     35.475702     -0.061679                    
P 31  19350.296851  -1616.615360 -18304.508617     65.484287                    
V 31 -15141.795634  17497.038650 -17104.713902     -0.026408                    
P 32  15919.375059  15424.807388 -14671.091246   -272.959053                    
V 32   3770.531038  18403.382866  23275.147341      0.171917                    
EOF
